{"fetched_at":"2026-07-19T07:05:34.422Z","source":"https://celestrak.org/NORAD/elements/gp.php?NAME=SENTINEL&FORMAT=JSON","constellation":"sentinel-3","records":[{"OBJECT_NAME":"SENTINEL-3A","OBJECT_ID":"2016-011A","EPOCH":"2026-07-18T20:16:58.507104","CLASSIFICATION_TYPE":"U","MEAN_MOTION":14.26740408,"ECCENTRICITY":0.0001323,"INCLINATION":98.6234,"RA_OF_ASC_NODE":266.7716,"ARG_OF_PERICENTER":89.1412,"MEAN_ANOMALY":270.992,"EPHEMERIS_TYPE":0,"NORAD_CAT_ID":41335,"ELEMENT_SET_NO":999,"REV_AT_EPOCH":54257,"BSTAR":0.000034479,"MEAN_MOTION_DOT":4e-7,"MEAN_MOTION_DDOT":0},{"OBJECT_NAME":"SENTINEL-3B","OBJECT_ID":"2018-039A","EPOCH":"2026-07-18T19:38:18.674016","CLASSIFICATION_TYPE":"U","MEAN_MOTION":14.26736975,"ECCENTRICITY":0.0001233,"INCLINATION":98.6233,"RA_OF_ASC_NODE":266.8941,"ARG_OF_PERICENTER":118.8505,"MEAN_ANOMALY":241.2799,"EPHEMERIS_TYPE":0,"NORAD_CAT_ID":43437,"ELEMENT_SET_NO":999,"REV_AT_EPOCH":42863,"BSTAR":0.000034917,"MEAN_MOTION_DOT":4.1e-7,"MEAN_MOTION_DDOT":0}]}
