SENTINEL-3A             
1 41335U 16011A   26199.84512161  .00000040  00000+0  34479-4 0  9994
2 41335  98.6234 266.7716 0001323  89.1412 270.9920 14.26740408542577
SENTINEL-3B             
1 43437U 18039A   26199.81827169  .00000041  00000+0  34917-4 0  9993
2 43437  98.6233 266.8941 0001233 118.8505 241.2799 14.26736975428634
